{"type": "FeatureCollection", "features": [{"type": "Feature", "properties": {"norad_id": 24876, "name": "GPS BIIR-2  (PRN 13)", "group": "gnss", "lat": 2.0801282861947326, "lon": 106.7115747119107, "alt_km": 20030.63130780599, "timestamp": "2025-12-27T04:40:45.747588+00:00", "meta": {"OBJECT_NAME": "GPS BIIR-2  (PRN 13)", "OBJECT_ID": "1997-035A", "EPOCH": "2025-12-26T16:37:51.239424", "MEAN_MOTION": 2.00563658, "ECCENTRICITY": 0.0096861, "INCLINATION": 55.9017, "RA_OF_ASC_NODE": 105.3232, "ARG_OF_PERICENTER": 56.9183, "MEAN_ANOMALY": 304.0095, "EPHEMERIS_TYPE": 0, "CLASSIFICATION_TYPE": "U", "NORAD_CAT_ID": 24876, "ELEMENT_SET_NO": 999, "REV_AT_EPOCH": 20849, "BSTAR": 0, "MEAN_MOTION_DOT": 2.3e-07, "MEAN_MOTION_DDOT": 0}, "tle": {"line1": "1 24876U 97035A   25360.69295416  .00000023  00000+0  00000+0 0  9992", "line2": "2 24876  55.9017 105.3232 0096861  56.9183 304.0095  2.00563658208493"}}, "geometry": {"type": "Point", "coordinates": [106.7115747119107, 2.0801282861947326]}}, {"type": "Feature", "properties": {"norad_id": 26360, "name": "GPS BIIR-4  (PRN 20)", "group": "gnss", "lat": 54.70088381674408, "lon": 125.38763877602047, "alt_km": 20263.350640391054, "timestamp": "2025-12-27T04:40:45.747634+00:00", "meta": {"OBJECT_NAME": "GPS BIIR-4  (PRN 20)", "OBJECT_ID": "2000-025A", "EPOCH": "2025-12-26T15:26:17.637216", "MEAN_MOTION": 2.00566407, "ECCENTRICITY": 0.0038896, "INCLINATION": 55.0535, "RA_OF_ASC_NODE": 26.2756, "ARG_OF_PERICENTER": 243.3079, "MEAN_ANOMALY": 173.8394, "EPHEMERIS_TYPE": 0, "CLASSIFICATION_TYPE": "U", "NORAD_CAT_ID": 26360, "ELEMENT_SET_NO": 999, "REV_AT_EPOCH": 18781, "BSTAR": 0, "MEAN_MOTION_DOT": -5.6e-07, "MEAN_MOTION_DDOT": 0}, "tle": {"line1": "1 26360U 00025A   25360.64325969 -.00000056  00000+0  00000+0 0  9994", "line2": "2 26360  55.0535  26.2756 0038896 243.3079 173.8394  2.00566407187812"}}, "geometry": {"type": "Point", "coordinates": [125.38763877602047, 54.70088381674408]}}, {"type": "Feature", "properties": {"norad_id": 26407, "name": "GPS BIIR-5  (PRN 22)", "group": "gnss", "lat": -47.842085524906096, "lon": 171.02781462242504, "alt_km": 19857.319794553103, "timestamp": "2025-12-27T04:40:45.747652+00:00", "meta": {"OBJECT_NAME": "GPS BIIR-5  (PRN 22)", "OBJECT_ID": "2000-040A", "EPOCH": "2025-12-26T19:06:10.143936", "MEAN_MOTION": 2.00568072, "ECCENTRICITY": 0.01252587, "INCLINATION": 54.8878, "RA_OF_ASC_NODE": 222.0099, "ARG_OF_PERICENTER": 302.0267, "MEAN_ANOMALY": 65.0853, "EPHEMERIS_TYPE": 0, "CLASSIFICATION_TYPE": "U", "NORAD_CAT_ID": 26407, "ELEMENT_SET_NO": 999, "REV_AT_EPOCH": 18649, "BSTAR": 0, "MEAN_MOTION_DOT": 7.6e-07, "MEAN_MOTION_DDOT": 0}, "tle": {"line1": "1 26407U 00040A   25360.79595074  .00000076  00000+0  00000+0 0  9996", "line2": "2 26407  54.8878 222.0099 0125258 302.0267  65.0853  2.00568072186493"}}, "geometry": {"type": "Point", "coordinates": [171.02781462242504, -47.842085524906096]}}, {"type": "Feature", "properties": {"norad_id": 27663, "name": "GPS BIIR-8  (PRN 16)", "group": "gnss", "lat": 50.995659573012766, "lon": -78.02158399644425, "alt_km": 19804.828550114456, "timestamp": "2025-12-27T04:40:45.747668+00:00", "meta": {"OBJECT_NAME": "GPS BIIR-8  (PRN 16)", "OBJECT_ID": "2003-005A", "EPOCH": "2025-12-26T14:42:29.071008", "MEAN_MOTION": 2.00570063, "ECCENTRICITY": 0.0147921, "INCLINATION": 54.9204, "RA_OF_ASC_NODE": 221.8264, "ARG_OF_PERICENTER": 52.0033, "MEAN_ANOMALY": 318.8923, "EPHEMERIS_TYPE": 0, "CLASSIFICATION_TYPE": "U", "NORAD_CAT_ID": 27663, "ELEMENT_SET_NO": 999, "REV_AT_EPOCH": 16785, "BSTAR": 0, "MEAN_MOTION_DOT": 7.5e-07, "MEAN_MOTION_DDOT": 0}, "tle": {"line1": "1 27663U 03005A   25360.61283647  .00000075  00000+0  00000+0 0  9995", "line2": "2 27663  54.9204 221.8264 0147921  52.0033 318.8923  2.00570063167856"}}, "geometry": {"type": "Point", "coordinates": [-78.02158399644425, 50.995659573012766]}}, {"type": "Feature", "properties": {"norad_id": 28190, "name": "GPS BIIR-11 (PRN 19)", "group": "gnss", "lat": -39.22513522478595, "lon": 137.50520348766238, "alt_km": 20051.960728637285, "timestamp": "2025-12-27T04:40:45.747681+00:00", "meta": {"OBJECT_NAME": "GPS BIIR-11 (PRN 19)", "OBJECT_ID": "2004-009A", "EPOCH": "2025-12-26T01:56:36.259872", "MEAN_MOTION": 2.00560231, "ECCENTRICITY": 0.01085974, "INCLINATION": 54.9736, "RA_OF_ASC_NODE": 282.6813, "ARG_OF_PERICENTER": 167.8637, "MEAN_ANOMALY": 337.216, "EPHEMERIS_TYPE": 0, "CLASSIFICATION_TYPE": "U", "NORAD_CAT_ID": 28190, "ELEMENT_SET_NO": 999, "REV_AT_EPOCH": 15947, "BSTAR": 0, "MEAN_MOTION_DOT": -3e-07, "MEAN_MOTION_DDOT": 0}, "tle": {"line1": "1 28190U 04009A   25360.08097523 -.00000030  00000+0  00000+0 0  9995", "line2": "2 28190  54.9736 282.6813 0108597 167.8637 337.2160  2.00560231159471"}}, "geometry": {"type": "Point", "coordinates": [137.50520348766238, -39.22513522478595]}}, {"type": "Feature", "properties": {"norad_id": 28474, "name": "GPS BIIR-13 (PRN 02)", "group": "gnss", "lat": -50.823888001059046, "lon": -86.6183895779838, "alt_km": 19760.242848012647, "timestamp": "2025-12-27T04:40:45.747695+00:00", "meta": {"OBJECT_NAME": "GPS BIIR-13 (PRN 02)", "OBJECT_ID": "2004-045A", "EPOCH": "2025-12-26T11:00:01.330272", "MEAN_MOTION": 2.00570057, "ECCENTRICITY": 0.0171007, "INCLINATION": 55.2338, "RA_OF_ASC_NODE": 331.8542, "ARG_OF_PERICENTER": 309.865, "MEAN_ANOMALY": 168.2197, "EPHEMERIS_TYPE": 0, "CLASSIFICATION_TYPE": "U", "NORAD_CAT_ID": 28474, "ELEMENT_SET_NO": 999, "REV_AT_EPOCH": 15496, "BSTAR": 0, "MEAN_MOTION_DOT": -5.9e-07, "MEAN_MOTION_DDOT": 0}, "tle": {"line1": "1 28474U 04045A   25360.45834873 -.00000059  00000+0  00000+0 0  9999", "line2": "2 28474  55.2338 331.8542 0171007 309.8650 168.2197  2.00570057154961"}}, "geometry": {"type": "Point", "coordinates": [-86.6183895779838, -50.823888001059046]}}, {"type": "Feature", "properties": {"norad_id": 28874, "name": "GPS BIIRM-1 (PRN 17)", "group": "gnss", "lat": -49.572042300926334, "lon": 155.27918182372332, "alt_km": 19940.943242670888, "timestamp": "2025-12-27T04:40:45.747726+00:00", "meta": {"OBJECT_NAME": "GPS BIIRM-1 (PRN 17)", "OBJECT_ID": "2005-038A", "EPOCH": "2025-12-24T20:45:31.120992", "MEAN_MOTION": 2.00577585, "ECCENTRICITY": 0.0131256, "INCLINATION": 55.0211, "RA_OF_ASC_NODE": 280.2128, "ARG_OF_PERICENTER": 293.8377, "MEAN_ANOMALY": 72.9738, "EPHEMERIS_TYPE": 0, "CLASSIFICATION_TYPE": "U", "NORAD_CAT_ID": 28874, "ELEMENT_SET_NO": 999, "REV_AT_EPOCH": 14834, "BSTAR": 0, "MEAN_MOTION_DOT": -2.3e-07, "MEAN_MOTION_DDOT": 0}, "tle": {"line1": "1 28874U 05038A   25358.86494353 -.00000023  00000+0  00000+0 0  9994", "line2": "2 28874  55.0211 280.2128 0131256 293.8377  72.9738  2.00577585148340"}}, "geometry": {"type": "Point", "coordinates": [155.27918182372332, -49.572042300926334]}}, {"type": "Feature", "properties": {"norad_id": 28899, "name": "INMARSAT 4-F2 (SOUTHPAN/PRN 122)", "group": "gnss", "lat": -4.87304324959462, "lon": -50.39509851117353, "alt_km": 35778.596638719006, "timestamp": "2025-12-27T04:40:45.747741+00:00", "meta": {"OBJECT_NAME": "INMARSAT 4-F2 (SOUTHPAN/PRN 122)", "OBJECT_ID": "2005-044A", "EPOCH": "2025-12-25T11:49:38.684640", "MEAN_MOTION": 1.00270481, "ECCENTRICITY": 0.00024771, "INCLINATION": 4.8675, "RA_OF_ASC_NODE": 43.7139, "ARG_OF_PERICENTER": 231.4406, "MEAN_ANOMALY": 140.0074, "EPHEMERIS_TYPE": 0, "CLASSIFICATION_TYPE": "U", "NORAD_CAT_ID": 28899, "ELEMENT_SET_NO": 999, "REV_AT_EPOCH": 7378, "BSTAR": 0, "MEAN_MOTION_DOT": -2.41e-06, "MEAN_MOTION_DDOT": 0}, "tle": {"line1": "1 28899U 05044A   25359.49280885 -.00000241  00000+0  00000+0 0  9993", "line2": "2 28899   4.8675  43.7139 0002477 231.4406 140.0074  1.00270481 73789"}}, "geometry": {"type": "Point", "coordinates": [-50.39509851117353, -4.87304324959462]}}, {"type": "Feature", "properties": {"norad_id": 29486, "name": "GPS BIIRM-2 (PRN 31)", "group": "gnss", "lat": 22.12509443567609, "lon": -38.58499498480365, "alt_km": 20227.90154690249, "timestamp": "2025-12-27T04:40:45.747755+00:00", "meta": {"OBJECT_NAME": "GPS BIIRM-2 (PRN 31)", "OBJECT_ID": "2006-042A", "EPOCH": "2025-12-26T12:05:34.202112", "MEAN_MOTION": 2.00553566, "ECCENTRICITY": 0.010727, "INCLINATION": 54.6956, "RA_OF_ASC_NODE": 158.1947, "ARG_OF_PERICENTER": 52.2681, "MEAN_ANOMALY": 319.984, "EPHEMERIS_TYPE": 0, "CLASSIFICATION_TYPE": "U", "NORAD_CAT_ID": 29486, "ELEMENT_SET_NO": 999, "REV_AT_EPOCH": 14093, "BSTAR": 0, "MEAN_MOTION_DOT": 1.08e-06, "MEAN_MOTION_DDOT": 0}, "tle": {"line1": "1 29486U 06042A   25360.50386808  .00000108  00000+0  00000+0 0  9992", "line2": "2 29486  54.6956 158.1947 0107270  52.2681 319.9840  2.00553566140935"}}, "geometry": {"type": "Point", "coordinates": [-38.58499498480365, 22.12509443567609]}}, {"type": "Feature", "properties": {"norad_id": 29601, "name": "GPS BIIRM-3 (PRN 12)", "group": "gnss", "lat": -24.756114598980623, "lon": 59.70475617273002, "alt_km": 20310.865813610217, "timestamp": "2025-12-27T04:40:45.747767+00:00", "meta": {"OBJECT_NAME": "GPS BIIRM-3 (PRN 12)", "OBJECT_ID": "2006-052A", "EPOCH": "2025-12-25T21:48:25.793568", "MEAN_MOTION": 2.00574428, "ECCENTRICITY": 0.00879901, "INCLINATION": 54.968, "RA_OF_ASC_NODE": 220.8755, "ARG_OF_PERICENTER": 87.5984, "MEAN_ANOMALY": 273.4866, "EPHEMERIS_TYPE": 0, "CLASSIFICATION_TYPE": "U", "NORAD_CAT_ID": 29601, "ELEMENT_SET_NO": 999, "REV_AT_EPOCH": 13993, "BSTAR": 0, "MEAN_MOTION_DOT": 7.2e-07, "MEAN_MOTION_DDOT": 0}, "tle": {"line1": "1 29601U 06052A   25359.90863187  .00000072  00000+0  00000+0 0  9994", "line2": "2 29601  54.9680 220.8755 0087990  87.5984 273.4866  2.00574428139938"}}, "geometry": {"type": "Point", "coordinates": [59.70475617273002, -24.756114598980623]}}]}